0 FENGYUN 1C DEB
1 33735U 99025DHY 13282.75722527  .00002804  00000-0  14994-2 0  2456
2 33735 099.0214 273.5657 0030766 103.1340 257.3769 14.13765599278777
0 FENGYUN 1C DEB
1 33735U 99025DHY 13287.21582055  .00002949  00000-0  15752-2 0  2477
2 33735 099.0209 278.0606 0029923 085.8048 274.6571 14.13795266279407
0 FENGYUN 1C DEB
1 33735U 99025DHY 13289.76355659  .00003015  00000-0  16092-2 0  2481
2 33735 099.0234 280.6371 0030394 079.2062 281.2948 14.13812384279762
0 FENGYUN 1C DEB
1 33735U 99025DHY 13290.18816779  .00003192  00000-0  17015-2 0  2497
2 33735 099.0232 281.0674 0030917 079.4658 281.1694 14.13821168279829
0 FENGYUN 1C DEB
1 33735U 99025DHY 13291.17890550  .00003258  00000-0  17360-2 0  2504
2 33735 099.0238 282.0666 0030706 074.2502 286.2334 14.13829368279966
0 FENGYUN 1C DEB
1 33735U 99025DHY 13294.92962830  .00004256  00000-0  22587-2 0  2518
2 33735 099.0255 285.8513 0030190 067.8564 292.9203 14.13875014280498
0 FENGYUN 1C DEB
1 33735U 99025DHY 13295.21262847  .00003501  00000-0  18633-2 0  2522
2 33735 099.0248 286.1369 0029444 058.6200 301.6582 14.13864538280530
0 FENGYUN 1C DEB
1 33735U 99025DHY 13295.77879077  .00003554  00000-0  18899-2 0  2535
2 33735 099.0252 286.7109 0031327 061.6724 298.7992 14.13870282280614
